{
  "65836": {
    "noradId": "65836",
    "tle": [
      "1 65836C 25221P   26064.45673611  .00006518  00000+0  21970-3 0   645",
      "2 65836  53.1583 107.8313 0001343  88.9450  58.7069 15.30184005    16"
    ]
  },
  "65837": {
    "noradId": "65837",
    "tle": [
      "1 65837C 25221Q   26064.45534722  .00007215  00000+0  24313-3 0   644",
      "2 65837  53.1578 108.1480 0001405  93.4758 249.4628 15.30188833    14"
    ]
  },
  "65838": {
    "noradId": "65838",
    "tle": [
      "1 65838C 25221R   26064.46020833  .00001970  00000+0  66374-4 0   645",
      "2 65838  53.1565 108.3905 0001405  84.0330 151.9246 15.30191037    10"
    ]
  },
  "65839": {
    "noradId": "65839",
    "tle": [
      "1 65839C 25221S   26064.45465278  .00038959  00000+0  13133-2 0   641",
      "2 65839  53.1583 108.1165 0001490  82.2665 274.2349 15.30145956    14"
    ]
  },
  "65840": {
    "noradId": "65840",
    "tle": [
      "1 65840C 25221T   26064.45604167  .00000758  00000+0  25555-4 0   644",
      "2 65840  53.1589 108.0752 0001313  90.2568 291.4112 15.30195129    14"
    ]
  },
  "65842": {
    "noradId": "65842",
    "tle": [
      "1 65842C 25221V   26064.45534722  .00000842  00000+0  28361-4 0   647",
      "2 65842  53.1594 108.0441 0001430  84.1614 311.1271 15.30195051    11"
    ]
  },
  "65843": {
    "noradId": "65843",
    "tle": [
      "1 65843C 25221W   26064.45951389 -.00000451  00000+0 -15196-4 0   640",
      "2 65843  53.1595 107.9205 0001379  88.2651  22.3255 15.30199890    15"
    ]
  },
  "65844": {
    "noradId": "65844",
    "tle": [
      "1 65844C 25221X   26064.45534722  .00024355  00000+0  82087-3 0   648",
      "2 65844  53.1574 108.1812 0001315  81.9982 243.4913 15.30166653    15"
    ]
  },
  "65845": {
    "noradId": "65845",
    "tle": [
      "1 65845C 25221Y   26064.45743056  .00003123  00000+0  10524-3 0   648",
      "2 65845  53.1595 107.9639 0001226  85.5992 356.0759 15.30191429    13"
    ]
  },
  "65846": {
    "noradId": "65846",
    "tle": [
      "1 65846C 25221Z   26064.45465278  .00020870  00000+0  70363-3 0   641",
      "2 65846  53.1590 107.8960 0001313  88.0778  18.9839 15.30159279    12"
    ]
  },
  "65847": {
    "noradId": "65847",
    "tle": [
      "1 65847C 25221AA  26064.45604167  .00004058  00000+0  13676-3 0   648",
      "2 65847  53.1571 108.4645 0001240  94.3830  89.5264 15.30190050    15"
    ]
  },
  "65848": {
    "noradId": "65848",
    "tle": [
      "1 65848C 25221AB  26064.45604167 -.00003960  00000+0 -13343-3 0   643",
      "2 65848  53.1592 107.9130 0001298  88.6512  14.4415 15.30201253    11"
    ]
  },
  "65849": {
    "noradId": "65849",
    "tle": [
      "1 65849C 25221AC  26064.45465278 -.00002997  00000+0 -10105-3 0   644",
      "2 65849  53.1574 108.5056 0001268  92.6382  66.1997 15.30185739    12"
    ]
  },
  "65850": {
    "noradId": "65850",
    "tle": [
      "1 65850C 25221AD  26064.46020833  .00002981  00000+0  10046-3 0   646",
      "2 65850  53.1568 108.4100 0001400  88.1383 136.1891 15.30190573    18"
    ]
  },
  "65854": {
    "noradId": "65854",
    "tle": [
      "1 65854C 25223A   26064.46020833 -.00003176  00000+0 -10702-3 0   640",
      "2 65854  53.1587 313.5361 0001235  98.9855 209.6244 15.30198972    19"
    ]
  },
  "65855": {
    "noradId": "65855",
    "tle": [
      "1 65855C 25223B   26064.46090278 -.00003849  00000+0 -12969-3 0   645",
      "2 65855  53.1589 313.8600 0001141  85.0066  58.7519 15.30202753    19"
    ]
  },
  "65856": {
    "noradId": "65856",
    "tle": [
      "1 65856C 25223C   26064.46090278 -.00004917  00000+0 -16568-3 0   642",
      "2 65856  53.1575 314.0235 0001064  85.6826 336.6388 15.30204899    11"
    ]
  },
  "65857": {
    "noradId": "65857",
    "tle": [
      "1 65857C 25223D   26064.45534722  .00000072  00000+0  24392-5 0   641",
      "2 65857  53.1577 314.1965 0001286  86.9343 229.1588 15.30194708    14"
    ]
  },
  "65858": {
    "noradId": "65858",
    "tle": [
      "1 65858C 25223E   26064.45673611 -.00000667  00000+0 -22482-4 0   642",
      "2 65858  53.1597 313.7196 0001164  86.6065 115.6123 15.30199680    19"
    ]
  },
  "65859": {
    "noradId": "65859",
    "tle": [
      "1 65859C 25223F   26064.46159722 -.00003908  00000+0 -13169-3 0   648",
      "2 65859  53.1576 314.1594 0001252  80.7033 275.6546 15.30201331    15"
    ]
  },
  "65860": {
    "noradId": "65860",
    "tle": [
      "1 65860C 25223G   26064.46020833  .00032768  00000+0  11043-2 0   642",
      "2 65860  53.1581 313.9559 0001036  88.7584   4.6026 15.30163450    12"
    ]
  },
  "65861": {
    "noradId": "65861",
    "tle": [
      "1 65861C 25223H   26064.45951389  .00030073  00000+0  10142-2 0   647",
      "2 65861  53.1573 314.0030 0001068  78.9993 347.3585 15.30141641    15"
    ]
  },
  "65862": {
    "noradId": "65862",
    "tle": [
      "1 65862C 25223J   26064.45812500 -.00002633  00000+0 -88728-4 0   649",
      "2 65862  53.1576 314.1610 0001228  77.4215 265.6094 15.30202825    12"
    ]
  },
  "65863": {
    "noradId": "65863",
    "tle": [
      "1 65863C 25223K   26064.46159722 -.00075614  00000+0 -25441-2 0   641",
      "2 65863  53.1575 314.0890 0001429  82.6823 308.5234 15.30322128    19"
    ]
  },
  "65864": {
    "noradId": "65864",
    "tle": [
      "1 65864C 25223L   26064.45743056 -.00006244  00000+0 -21041-3 0   646",
      "2 65864  53.1597 313.6346 0001108  85.7604 161.0035 15.30203598    10"
    ]
  },
  "65865": {
    "noradId": "65865",
    "tle": [
      "1 65865C 25223M   26064.46090278 -.00004469  00000+0 -15058-3 0   647",
      "2 65865  53.1583 313.5045 0001167  83.0266 241.0462 15.30201857    10"
    ]
  },
  "65866": {
    "noradId": "65866",
    "tle": [
      "1 65866C 25223N   26064.45881944 -.00001815  00000+0 -61162-4 0   645",
      "2 65866  53.1575 314.0742 0001429 109.0331 278.5533 15.30199272    16"
    ]
  },
  "65867": {
    "noradId": "65867",
    "tle": [
      "1 65867C 25223P   26064.45743056 -.00005297  00000+0 -17851-3 0   640",
      "2 65867  53.1598 313.7230 0001239  83.6231 116.6221 15.30200016    10"
    ]
  },
  "65868": {
    "noradId": "65868",
    "tle": [
      "1 65868C 25223Q   26064.45604167 -.00005937  00000+0 -20005-3 0   646",
      "2 65868  53.1579 314.0088 0001060  86.6080 326.3781 15.30205823    14"
    ]
  },
  "65869": {
    "noradId": "65869",
    "tle": [
      "1 65869C 25223R   26064.45534722 -.00003291  00000+0 -11092-3 0   643",
      "2 65869  53.1573 314.0820 0001301  96.1390 278.1301 15.30197794    10"
    ]
  },
  "65870": {
    "noradId": "65870",
    "tle": [
      "1 65870C 25223S   26064.45812500 -.00006207  00000+0 -20915-3 0   642",
      "2 65870  53.1598 313.6770 0001228  80.9174 146.4127 15.30203659    18"
    ]
  },
  "65871": {
    "noradId": "65871",
    "tle": [
      "1 65871C 25223T   26064.45395833  .00016889  00000+0  56965-3 0   647",
      "2 65871  53.1592 313.8329 0001372  94.5026  40.1714 15.30150434    16"
    ]
  },
  "65872": {
    "noradId": "65872",
    "tle": [
      "1 65872C 25223U   26064.45743056 -.00002056  00000+0 -69296-4 0   647",
      "2 65872  53.1597 313.6672 0001226  80.8702 148.4553 15.30198842    16"
    ]
  },
  "65873": {
    "noradId": "65873",
    "tle": [
      "1 65873C 25223V   26064.45812500 -.00002635  00000+0 -88806-4 0   640",
      "2 65873  53.1589 313.5500 0001207  84.1892 207.1245 15.30198831    12"
    ]
  },
  "65874": {
    "noradId": "65874",
    "tle": [
      "1 65874C 25223W   26064.45465278 -.00002023  00000+0 -68185-4 0   646",
      "2 65874  53.1583 313.9669 0000944  81.5863 347.0166 15.30197779    19"
    ]
  },
  "65875": {
    "noradId": "65875",
    "tle": [
      "1 65875C 25223X   26064.46090278 -.00004665  00000+0 -15720-3 0   642",
      "2 65875  53.1580 314.2021 0001233  93.8186 235.4600 15.30199007    18"
    ]
  },
  "65876": {
    "noradId": "65876",
    "tle": [
      "1 65876C 25223Y   26064.45743056 -.00004143  00000+0 -13958-3 0   643",
      "2 65876  53.1575 314.0434 0001386  80.3498 317.0173 15.30206794    19"
    ]
  },
  "65877": {
    "noradId": "65877",
    "tle": [
      "1 65877C 25223Z   26064.45881944  .00009567  00000+0  32254-3 0   646",
      "2 65877  53.1594 313.5664 0001366  86.2764 197.2572 15.30173485    10"
    ]
  },
  "65878": {
    "noradId": "65878",
    "tle": [
      "1 65878C 25223AA  26064.45534722 -.00050011  00000+0 -16866-2 0   648",
      "2 65878  53.1575 314.1229 0001380  94.4893 256.6182 15.30221320    13"
    ]
  },
  "65879": {
    "noradId": "65879",
    "tle": [
      "1 65879C 25223AB  26064.45743056 -.00003775  00000+0 -12705-3 0   645",
      "2 65879  53.1579 314.2040 0001060  81.0099 234.8125 15.30237730    12"
    ]
  },
  "65880": {
    "noradId": "65880",
    "tle": [
      "1 65880C 25223AC  26064.46090278 -.00016222  00000+0 -54647-3 0   641",
      "2 65880  53.1581 313.9573 0000824 104.9894 346.3904 15.30224165    11"
    ]
  },
  "65881": {
    "noradId": "65881",
    "tle": [
      "1 65881C 25223AD  26064.45743056 -.00006812  00000+0 -22956-3 0   642",
      "2 65881  53.1573 314.1347 0001124  83.4082 267.4440 15.30203991    11"
    ]
  },
  "65882": {
    "noradId": "65882",
    "tle": [
      "1 65882C 25224A   26064.45951389  .00012678  00000+0  42723-3 0   643",
      "2 65882  53.1604  31.0179 0001295  91.7923   8.2353 15.30184749    13"
    ]
  },
  "65883": {
    "noradId": "65883",
    "tle": [
      "1 65883C 25224B   26064.45604167  .00006713  00000+0  22622-3 0   642",
      "2 65883  53.1609  30.8976 0001241  88.7561  61.9345 15.30189737    15"
    ]
  },
  "65884": {
    "noradId": "65884",
    "tle": [
      "1 65884C 25224C   26064.45465278  .00024730  00000+0  83345-3 0   649",
      "2 65884  53.1596  31.1081 0001292  90.0584 308.2943 15.30168203    15"
    ]
  }
}